IRIDIUM 8 [+]           
1 24792U 97020A   13127.46926752  .00000431  00000-0  14692-3 0  3398
2 24792  86.3996 226.3315 0002316 109.9104 250.2341 14.34218233837955
IRIDIUM 7 [+]           
1 24793U 97020B   13127.40157969  .00000423  00000-0  14400-3 0  3386
2 24793  86.3999 226.5602 0002352 110.6434 292.8556 14.34224053837941
IRIDIUM 6 [+]           
1 24794U 97020C   13128.50310743  .00000451  00000-0  15405-3 0  1396
2 24794  86.3997 226.0640 0002194 116.3349 243.8072 14.34218578838102
IRIDIUM 5 [+]           
1 24795U 97020D   13127.38047429  .00000436  00000-0  14871-3 0  5326
2 24795  86.3994 226.6371 0002885 115.0584 245.0911 14.34217693838025
IRIDIUM 4 [-]           
1 24796U 97020E   13127.40086603  .00000330  00000-0  11049-3 0  3760
2 24796  86.3995 226.2078 0002203 107.6353 295.8862 14.34356988837952
IRIDIUM 914 [-]         
1 24836U 97030A   13128.43514417  .00000362  00000-0  11324-3 0  9070
2 24836  86.3957 246.5607 0002144  66.6096 335.7470 14.37949893833210
IRIDIUM 12 [+]          
1 24837U 97030B   13127.47455061  .00000377  00000-0  12742-3 0  3494
2 24837  86.3963 257.7654 0002325 108.7131 293.9426 14.34228678831709
IRIDIUM 10 [+]          
1 24839U 97030D   13127.46246684  .00000076  00000-0  19973-4 0  3494
2 24839  86.3963 257.7594 0002263 110.2851 295.3581 14.34217365831712
IRIDIUM 13 [+]          
1 24840U 97030E   13128.45523334  .00000399  00000-0  13523-3 0  2992
2 24840  86.3967 257.4525 0002221 110.2853 279.7575 14.34219023831841
IRIDIUM 16 [-]          
1 24841U 97030F   13128.43555635  .00000385  00000-0  12619-3 0  3227
2 24841  86.4047 258.0909 0003741 126.4744 269.6040 14.35823695832169
IRIDIUM 911 [-]         
1 24842U 97030G   13128.51571130  .00000476  00000-0  13378-3 0    02
2 24842  86.4471 259.6626 0015543  39.9052  31.2731 14.43868146836317
IRIDIUM 15 [+]          
1 24869U 97034A   13128.51609053  .00000204  00000-0  65656-4 0  3954
2 24869  86.3940 289.0461 0002328 107.0770 284.9684 14.34214277828822
IRIDIUM 17 [-]          
1 24870U 97034B   13128.48781328  .00000344  00000-0  11395-3 0  3100
2 24870  86.3947 288.5890 0002278 104.7071 334.3037 14.34949769828893
IRIDIUM 920 [-]         
1 24871U 97034C   13128.51112258  .00000385  00000-0  11936-3 0  9455
2 24871  86.3962 278.3585 0010698 224.9875 165.2038 14.38611113830529
IRIDIUM 18 [+]          
1 24872U 97034D   13127.56486083  .00000180  00000-0  57173-4 0  3271
2 24872  86.3941 289.6368 0002289 112.3179 247.8260 14.34214745828689
IRIDIUM 921 [-]         
1 24873U 97034E   13128.37439550  .00002972  00000-0  22853-3 0  4503
2 24873  86.3889  51.5254 0011073  92.9312  57.1581 15.01289808862036
IRIDIUM 26 [-]          
1 24903U 97043A   13127.58157853  .00000259  00000-0  85026-4 0  4522
2 24903  86.3978 163.1435 0002258 109.8981  44.6937 14.34512647822638
IRIDIUM 25 [+]          
1 24904U 97043B   13127.51317255  .00000208  00000-0  67296-4 0  3511
2 24904  86.3974 163.1389 0002383 108.8858 251.2596 14.34218805822584
IRIDIUM 46 [+]          
1 24905U 97043C   13127.55585912  .00000208  00000-0  67305-4 0  3659
2 24905  86.3982 163.5336 0002332 108.6466  46.3172 14.34218746822595
IRIDIUM 23 [S]          
1 24906U 97043D   13127.59913042  .00000018  00000-0 -76007-6 0  3700
2 24906  86.3974 163.0184 0002309 108.5981  37.7940 14.34210302822607
IRIDIUM 22 [+]          
1 24907U 97043E   13127.59621655  .00000215  00000-0  69791-4 0  3299
2 24907  86.3985 163.5971 0002335 107.4298  59.4193 14.34219357822607
DUMMY MASS 1 [-]        
1 24925U 97048A   13128.44646580  .00000306  00000-0  33232-4 0  4971
2 24925  86.3376  14.9295 0004897 314.9232 154.5189 14.84321379848903
DUMMY MASS 2 [-]        
1 24926U 97048B   13128.39003571  .00000318  00000-0  34808-4 0  4853
2 24926  86.3378  15.8264 0005861 321.9608 155.8536 14.84097321848771
IRIDIUM 29 [+]          
1 24944U 97051A   13127.57365563  .00000392  00000-0  13297-3 0  2890
2 24944  86.3998 194.7062 0002356 108.8525 251.2926 14.34218271819178
IRIDIUM 32 [+]          
1 24945U 97051B   13127.45315350  .00000369  00000-0  12454-3 0  3256
2 24945  86.4002 194.7803 0002331 109.0151 251.1297 14.34217596819179
IRIDIUM 33 [-]          
1 24946U 97051C   13127.60229865  .00000264  00000-0  89281-4 0  4202
2 24946  86.3916 194.8830 0010274  96.7544  53.7072 14.32899914818957
IRIDIUM 28 [-]          
1 24948U 97051E   13127.27000091  .00000298  00000-0  98170-4 0  1734
2 24948  86.4005 194.8270 0002697 113.1627 311.7661 14.34781320819150
IRIDIUM 30 [+]          
1 24949U 97051F   13127.58634763  .00000365  00000-0  12323-3 0  3718
2 24949  86.4000 194.7978 0002334 111.7790 248.3654 14.34217794819171
IRIDIUM 31 [+]          
1 24950U 97051G   13127.58000463  .00000384  00000-0  12988-3 0  3330
2 24950  86.4003 194.8051 0002472  86.2187 273.9292 14.34217825819186
IRIDIUM 19 [+]          
1 24965U 97056A   13127.35510260  .00000441  00000-0  15049-3 0  3118
2 24965  86.3995 226.3731 0002360 110.6236 249.5213 14.34217578817297
IRIDIUM 35 [+]          
1 24966U 97056B   13128.41431484  .00000444  00000-0  15145-3 0  3612
2 24966  86.3994 225.9408 0002378 111.2174 248.9276 14.34218985817420
IRIDIUM 36 [-]          
1 24967U 97056C   13128.43089440  .00000341  00000-0  11340-3 0  2939
2 24967  86.4007 225.8998 0002385 105.4719 301.2406 14.34801940817605
IRIDIUM 37 [+]          
1 24968U 97056D   13127.41218438  .00000425  00000-0  14456-3 0  3179
2 24968  86.3999 226.5014 0002327 109.8492 250.2955 14.34218184817282
IRIDIUM 34 [+]          
1 24969U 97056E   13127.36144508  .00000389  00000-0  13200-3 0  3052
2 24969  86.4002 226.4622 0002310 110.5050 249.6394 14.34217557817275
IRIDIUM 43 [+]          
1 25039U 97069A   13128.47199638  .00000059  00000-0  13943-4 0  3141
2 25039  86.3928 289.2085 0002405 101.5243 292.0440 14.34218286811211
IRIDIUM 41 [+]          
1 25040U 97069B   13128.46565315  .00000203  00000-0  65480-4 0  3066
2 25040  86.3942 289.1639 0002324 114.6215 278.9867 14.34215115811211
IRIDIUM 40 [+]          
1 25041U 97069C   13127.50777778  .00000213  00000-0  68927-4 0  3340
2 25041  86.3940 289.5143 0002340 108.1670 251.9780 14.34214691811094
IRIDIUM 39 [+]          
1 25042U 97069D   13127.51411537  .00000209  00000-0  67601-4 0  3130
2 25042  86.3931 289.7757 0002027 122.0896 238.0497 14.34218921811074
IRIDIUM 38 [-]          
1 25043U 97069E   13128.46448044  .00000336  00000-0  11078-3 0  3114
2 25043  86.3945 287.8647 0003104 124.5598 269.0472 14.35214176811414
IRIDIUM 42 [+]          
1 25077U 97077A   13127.50143454  .00000219  00000-0  71169-4 0  3131
2 25077  86.3940 289.6210 0002353 107.8067 252.3386 14.34214845806934
IRIDIUM 44 [-]          
1 25078U 97077B   13128.50294240  .00000389  00000-0  12437-3 0  8004
2 25078  86.3951 282.2502 0003724 124.1104 267.5925 14.37172042808010
IRIDIUM 45 [+]          
1 25104U 97082A   13127.60947323  .00000201  00000-0  64663-4 0  2755
2 25104  86.3973 163.0844 0002313 105.2478 359.0622 14.34218461805141
IRIDIUM 24 [-]          
1 25105U 97082B   13128.12968248  .00000370  00000-0  11373-3 0  8485
2 25105  86.3928 148.8843 0010209 235.5014 187.7244 14.38893690806928
IRIDIUM 47 [+]          
1 25106U 97082C   13127.56222321  .00000200  00000-0  64339-4 0  2542
2 25106  86.3971 163.0376 0002076 114.8041  40.2510 14.34218574805138
IRIDIUM 49 [+]          
1 25108U 97082E   13127.57634771  .00000184  00000-0  58626-4 0  2791
2 25108  86.3975 163.0950 0002305 108.9594  53.5012 14.34218302805148
IRIDIUM 52 [+]          
1 25169U 98010A   13127.44263791  .00000394  00000-0  13373-3 0   415
2 25169  86.3968 258.0027 0002320 109.0351 292.4681 14.34218418796533
IRIDIUM 56 [+]          
1 25170U 98010B   13127.50796667  .00000036  00000-0  59673-5 0  8301
2 25170  86.3971 258.0550 0002275 109.4928 301.8253 14.34217138796520
IRIDIUM 54 [+]          
1 25171U 98010C   13127.45999164  .00000364  00000-0  12285-3 0  2756
2 25171  86.3967 258.0079 0002311 108.8757 251.2690 14.34217975796685
IRIDIUM 50 [+]          
1 25172U 98010D   13127.50202162  .00000407  00000-0  13818-3 0  3154
2 25172  86.3968 257.9549 0002287 108.5252 304.8488 14.34218261796528
IRIDIUM 53 [+]          
1 25173U 98010E   13127.52015161  .00000360  00000-0  12157-3 0  2914
2 25173  86.3967 257.9541 0002331 109.0838 299.6606 14.34217910796530
IRIDIUM 51 [S]          
1 25262U 98018A   13127.46282737  .00000430  00000-0  14635-3 0  4305
2 25262  86.4007 226.6081 0002250 116.8155 243.3271 14.34209773795918
IRIDIUM 61 [+]          
1 25263U 98018B   13127.41852809  .00000450  00000-0  15369-3 0  2332
2 25263  86.3999 226.4681 0002322 110.8610 249.2834 14.34217923791611
IRIDIUM 55 [+]          
1 25272U 98019A   13127.28189573  .00000369  00000-0  12476-3 0  2378
2 25272  86.4000 194.7707 0002374 109.9251 250.2201 14.34222241790795
IRIDIUM 57 [+]          
1 25273U 98019B   13128.37281887  .00000380  00000-0  12860-3 0  2731
2 25273  86.4004 194.5557 0002370 110.2986 249.8464 14.34211883790950
IRIDIUM 58 [+]          
1 25274U 98019C   13127.26287314  .00000370  00000-0  12489-3 0   914
2 25274  86.4005 195.1721 0002336 111.9992 248.1452 14.34217505790797
IRIDIUM 59 [+]          
1 25275U 98019D   13127.47850827  .00000156  00000-0  48660-4 0  8688
2 25275  86.4001 195.0168 0002350 113.4347 246.7096 14.34213791790820
IRIDIUM 60 [+]          
1 25276U 98019E   13127.27556059  .00000372  00000-0  12570-3 0  3176
2 25276  86.3997 194.7799 0002376 109.5495 250.5958 14.34217278790798
IRIDIUM 62 [+]          
1 25285U 98021A   13128.49282338  .00000147  00000-0  45296-4 0  2902
2 25285  86.3951 131.2133 0002222 106.4891 253.6549 14.34220145789922
IRIDIUM 63 [+]          
1 25286U 98021B   13128.52753906  .00000067  00000-0  16973-4 0  3082
2 25286  86.3959 131.3574 0002202 102.8296  43.7120 14.34215028789925
